#aV2015  9 28  0  0  0.00000000     288 DD+AD WGS84 FIT  NGA
## 1864  86400.00000000   300.00000000 57293 0.0000000000000
+   31     1  2  3  4  5  6  7  8  9 11 12 13 14 15 16 17 18
+         19 20 21 22 23 24 25 26 27 28 29 30 31 32  0  0  0
+          0  0  0  0  0  0  0  0  0  0  0  0  0  0  0  0  0
+          0  0  0  0  0  0  0  0  0  0  0  0  0  0  0  0  0
+          0  0  0  0  0  0  0  0  0  0  0  0  0  0  0  0  0
++         2  2  2  2  2  2  2  2  2  2  2  2  2  2  2  2  2
++         2  2  2  2  2  2  2  2  2  2  2  2  2  2  0  0  0
++         0  0  0  0  0  0  0  0  0  0  0  0  0  0  0  0  0
++         0  0  0  0  0  0  0  0  0  0  0  0  0  0  0  0  0
++         0  0  0  0  0  0  0  0  0  0  0  0  0  0  0  0  0
%c cc cc ccc ccc cccc cccc cccc cccc ccccc ccccc ccccc ccccc
%c cc cc ccc ccc cccc cccc cccc cccc ccccc ccccc ccccc ccccc
%f  0.0000000  0.000000000  0.00000000000  0.000000000000000
%f  0.0000000  0.000000000  0.00000000000  0.000000000000000
%i    0    0    0    0      0      0      0      0         0
%i    0    0    0    0      0      0      0      0         0
/*      NGA, ST. LOUIS,MO.                                  
/*   EPHEMERIS COMPUTED FROM  1 DAYS OF DATA                
/*   EPOCHA SMOOTHER                                       
/* CCCCCCCCCCCCCCCCCCCCCCCCCCCCCCCCCCCCCCCCCCCCCCCCCCCCCCCCC
*  2015  9 28  6 40  0.00000000
P  1 -21040.523644 -13833.010676  -8834.275586      1.317242                    
V  1  11216.816094   1413.912529 -28963.234706      0.007235                    
P  2   -266.957732  16241.516320  21448.451451    590.702815                    
V  2 -25320.484667  -7348.219796   4908.799425      0.014737                    
P  3 -13171.170051 -18895.017846  13212.524716     21.208616                    
V  3  -1016.693796 -16900.958981 -25221.418566     -0.002352                    
P  4 -13351.360116 -16719.368963 -16246.968035    -25.630862                    
V  4  19615.482320   4149.476952 -20583.832421     -0.044361                    
P  5   1457.432367  25868.086623   5297.604332   -190.807837                    
V  5  -4650.552198  -6035.202353  30598.411088      0.040023                    
P  6 -13656.679343  10305.493394  20309.795826     66.513640                    
V  6 -24108.372855  -9225.546351 -11535.559935      0.072049                    
P  7 -25605.239020  -5407.748651  -5506.201443    483.995382                    
V  7  -5877.828601  -4491.728740  30660.040648     -0.007575                    
P  8  -4800.135544 -15411.060770 -21049.798216     -6.825411                    
V  8  20573.130146 -17238.949853   7899.882493     -0.012747                    
P  9 -20784.086706   3084.336288  16251.351601     -6.907323                    
V  9  14170.144402 -15149.805113  20973.450782      0.025783                    
P 11 -18136.368696 -12179.629138 -15714.204894   -606.885261                    
V 11  19107.605465  -3509.425543 -19953.720767     -0.023470                    
P 12  10664.080907  21629.400468  11261.271026    332.065992                    
V 12    628.534019  14408.697951 -27803.584831      0.033642                    
P 13  -6256.283630  18997.193840 -17663.093288   -152.559229                    
V 13 -18916.541165  11496.911736  19102.701217     -0.029353                    
P 14  21954.607343 -14605.521787  -2125.917698     31.707344                    
V 14   -730.355329   4058.065602 -31807.199971     -0.026205                    
P 15   6967.988973  14879.066558 -20918.602322   -273.951812                    
V 15 -19636.798432  17823.645761   6496.964523     -0.020425                    
P 16    423.210496 -25725.840239   5662.738621    -82.021535                    
V 16   3030.652067   7019.121156  31572.405356      0.038727                    
P 17 -21261.090487  15606.206093  -1601.253813   -189.205507                    
V 17    252.806658  -3544.269619 -32090.067947     -0.013101                    
P 18  16071.126594    614.224099 -20659.787178    437.866003                    
V 18   5489.240044  26969.054147   4670.677428      0.034301                    
P 19 -14061.515016  -7924.727802 -21408.846243   -520.754996                    
V 19  21278.561049 -15839.266851  -7772.785972     -0.005824                    
P 20  13425.851646  20735.232962  -9807.377023    358.822527                    
V 20    -39.547573  12808.590987  27536.554984      0.030249                    
P 21  25327.435757   2237.138649  -7519.463260   -482.903192                    
V 21   8954.057373   6311.204303  28954.078380     -0.027159                    
P 22  11492.660674 -14269.185755 -18934.552505    395.642255                    
V 22   7211.823735  23739.102207 -13522.297292      0.036837                    
P 23 -12957.753588  -9202.191513  21488.877096   -135.754004                    
V 23  20123.900592 -17848.074351   4092.863971     -0.021795                    
P 24  19224.528217  14602.915166 -11284.944018     -5.440369                    
V 24 -14331.162025  -1944.977553 -26851.594600     -0.006361                    
P 25  15236.558061   9659.406483  19449.833636    -44.811295                    
V 25   3835.361558  24532.633629 -14950.607820     -0.052831                    
P 26   6245.514874 -21167.832042  14769.328957    -66.250730                    
V 26   5756.162284  17976.510629  23334.288346     -0.119751                    
P 27   7190.926667 -20413.546516 -15340.079588     23.177843                    
V 27  15857.007085 -11445.278036  22821.608112      0.030028                    
P 28 -12423.333386   9942.064447 -20627.642458    470.624087                    
V 28  -4141.705261 -27283.430337 -10426.504664      0.026313                    
P 29  19595.946635     97.340966  17923.571966    636.693344                    
V 29 -17009.076449  15118.163240  18562.237638      0.021091                    
P 30 -21608.588369   2597.091440 -15281.098411     32.066033                    
V 30 -17035.005811  -9486.687597  22394.167671      0.064131                    
P 31  13407.417160 -10059.606695  20812.255002    301.243294                    
V 31  24110.938220   9776.658340 -10542.799601     -0.014172                    
P 32  -5139.886880 -26192.140475   2918.611739    -30.473398                    
V 32   2309.680373  -4006.151390 -30820.311673      0.111837                    
EOF
